{
  "type": "FeatureCollection",
  "features": [
    {
      "type": "Feature",
      "properties": {
        "norad_id": 34641,
        "name": "COSMOS 2251 DEB",
        "group": "cosmos-2251-debris",
        "lat": -34.64116834322391,
        "lon": 46.97355282120553,
        "alt_km": 711.3049616880435,
        "timestamp": "2025-12-24T20:42:21.420344+00:00",
        "meta_object_name": "COSMOS 2251 DEB",
        "meta_object_id": "1993-036XN",
        "meta_epoch": "2025-12-23T22:32:56.853024",
        "meta_mean_motion": 14.52074303,
        "meta_eccentricity": 0.0019071,
        "meta_inclination": 73.8374,
        "meta_ra_of_asc_node": 60.292,
        "meta_arg_of_pericenter": 332.9719,
        "meta_mean_anomaly": 206.7936,
        "meta_ephemeris_type": 0,
        "meta_classification_type": "U",
        "meta_norad_cat_id": 34641,
        "meta_element_set_no": 999,
        "meta_rev_at_epoch": 88418,
        "meta_bstar": 0.00077881,
        "meta_mean_motion_dot": 3.13e-05,
        "meta_mean_motion_ddot": 0,
        "tle_line1": "1 34641U 93036XN  25357.93954691  .00003130  00000+0  77881-3 0  9997",
        "tle_line2": "2 34641  73.8374  60.2920 0019071 332.9719 206.7936 14.52074303884184"
      },
      "geometry": {
        "type": "Point",
        "coordinates": [
          46.97355282120553,
          -34.64116834322391
        ]
      }
    },
    {
      "type": "Feature",
      "properties": {
        "norad_id": 34642,
        "name": "COSMOS 2251 DEB",
        "group": "cosmos-2251-debris",
        "lat": -69.13268687529848,
        "lon": -172.3935299433575,
        "alt_km": 978.3454841869388,
        "timestamp": "2025-12-24T20:42:21.420354+00:00",
        "meta_object_name": "COSMOS 2251 DEB",
        "meta_object_id": "1993-036XP",
        "meta_epoch": "2025-12-22T21:18:46.794240",
        "meta_mean_motion": 13.99000221,
        "meta_eccentricity": 0.02065395,
        "meta_inclination": 74.0044,
        "meta_ra_of_asc_node": 322.2225,
        "meta_arg_of_pericenter": 139.6532,
        "meta_mean_anomaly": 253.1213,
        "meta_ephemeris_type": 0,
        "meta_classification_type": "U",
        "meta_norad_cat_id": 34642,
        "meta_element_set_no": 999,
        "meta_rev_at_epoch": 85435,
        "meta_bstar": 0.00078596345,
        "meta_mean_motion_dot": 1.341e-05,
        "meta_mean_motion_ddot": 0,
        "tle_line1": "1 34642U 93036XP  25356.88804160  .00001341  00000+0  78596-3 0  9992",
        "tle_line2": "2 34642  74.0044 322.2225 0206539 139.6532 253.1213 13.99000221854351"
      },
      "geometry": {
        "type": "Point",
        "coordinates": [
          -172.3935299433575,
          -69.13268687529848
        ]
      }
    },
    {
      "type": "Feature",
      "properties": {
        "norad_id": 34671,
        "name": "COSMOS 2251 DEB",
        "group": "cosmos-2251-debris",
        "lat": 1.0479418831266405,
        "lon": 111.19141465745611,
        "alt_km": 680.1228445017341,
        "timestamp": "2025-12-24T20:42:21.420364+00:00",
        "meta_object_name": "COSMOS 2251 DEB",
        "meta_object_id": "1993-036XR",
        "meta_epoch": "2025-12-23T01:02:34.173312",
        "meta_mean_motion": 14.67102739,
        "meta_eccentricity": 0.00106686,
        "meta_inclination": 74.0274,
        "meta_ra_of_asc_node": 114.4027,
        "meta_arg_of_pericenter": 195.4789,
        "meta_mean_anomaly": 280.8159,
        "meta_ephemeris_type": 0,
        "meta_classification_type": "U",
        "meta_norad_cat_id": 34671,
        "meta_element_set_no": 999,
        "meta_rev_at_epoch": 88448,
        "meta_bstar": 0.0017957882,
        "meta_mean_motion_dot": 0.0001008,
        "meta_mean_motion_ddot": 0,
        "tle_line1": "1 34671U 93036XR  25357.04345108  .00010080  00000+0  17958-2 0  9999",
        "tle_line2": "2 34671  74.0274 114.4027 0010668 195.4789 280.8159 14.67102739884485"
      },
      "geometry": {
        "type": "Point",
        "coordinates": [
          111.19141465745611,
          1.0479418831266405
        ]
      }
    },
    {
      "type": "Feature",
      "properties": {
        "norad_id": 34672,
        "name": "COSMOS 2251 DEB",
        "group": "cosmos-2251-debris",
        "lat": -68.06801558477164,
        "lon": -121.99961376562057,
        "alt_km": 770.5233310695912,
        "timestamp": "2025-12-24T20:42:21.420374+00:00",
        "meta_object_name": "COSMOS 2251 DEB",
        "meta_object_id": "1993-036XS",
        "meta_epoch": "2025-12-23T01:39:52.431840",
        "meta_mean_motion": 14.36424251,
        "meta_eccentricity": 0.00243004,
        "meta_inclination": 74.0343,
        "meta_ra_of_asc_node": 286.6106,
        "meta_arg_of_pericenter": 356.389,
        "meta_mean_anomaly": 18.9966,
        "meta_ephemeris_type": 0,
        "meta_classification_type": "U",
        "meta_norad_cat_id": 34672,
        "meta_element_set_no": 999,
        "meta_rev_at_epoch": 65326,
        "meta_bstar": 0.00025150328,
        "meta_mean_motion_dot": 7.13e-06,
        "meta_mean_motion_ddot": 0,
        "tle_line1": "1 34672U 93036XS  25357.06935685  .00000713  00000+0  25150-3 0  9993",
        "tle_line2": "2 34672  74.0343 286.6106 0024300 356.3890  18.9966 14.36424251653260"
      },
      "geometry": {
        "type": "Point",
        "coordinates": [
          -121.99961376562057,
          -68.06801558477164
        ]
      }
    },
    {
      "type": "Feature",
      "properties": {
        "norad_id": 34678,
        "name": "COSMOS 2251 DEB",
        "group": "cosmos-2251-debris",
        "lat": -11.227747971394603,
        "lon": 166.90939119615015,
        "alt_km": 812.3865814410356,
        "timestamp": "2025-12-24T20:42:21.420385+00:00",
        "meta_object_name": "COSMOS 2251 DEB",
        "meta_object_id": "1993-036XY",
        "meta_epoch": "2025-12-24T03:36:15.971040",
        "meta_mean_motion": 14.30066978,
        "meta_eccentricity": 0.00247719,
        "meta_inclination": 74.0378,
        "meta_ra_of_asc_node": 344.9472,
        "meta_arg_of_pericenter": 30.5508,
        "meta_mean_anomaly": 93.9544,
        "meta_ephemeris_type": 0,
        "meta_classification_type": "U",
        "meta_norad_cat_id": 34678,
        "meta_element_set_no": 999,
        "meta_rev_at_epoch": 87542,
        "meta_bstar": 3.2350873e-05,
        "meta_mean_motion_dot": 5.8e-07,
        "meta_mean_motion_ddot": 0,
        "tle_line1": "1 34678U 93036XY  25358.15018485  .00000058  00000+0  32351-4 0  9994",
        "tle_line2": "2 34678  74.0378 344.9472 0024771  30.5508  93.9544 14.30066978875428"
      },
      "geometry": {
        "type": "Point",
        "coordinates": [
          166.90939119615015,
          -11.227747971394603
        ]
      }
    },
    {
      "type": "Feature",
      "properties": {
        "norad_id": 34680,
        "name": "COSMOS 2251 DEB",
        "group": "cosmos-2251-debris",
        "lat": 8.103598362857662,
        "lon": 109.04591888670458,
        "alt_km": 696.5132724038713,
        "timestamp": "2025-12-24T20:42:21.420395+00:00",
        "meta_object_name": "COSMOS 2251 DEB",
        "meta_object_id": "1993-036YA",
        "meta_epoch": "2025-12-23T15:21:33.153120",
        "meta_mean_motion": 14.60731514,
        "meta_eccentricity": 0.00063275,
        "meta_inclination": 74.0441,
        "meta_ra_of_asc_node": 109.0451,
        "meta_arg_of_pericenter": 210.5791,
        "meta_mean_anomaly": 210.4022,
        "meta_ephemeris_type": 0,
        "meta_classification_type": "U",
        "meta_norad_cat_id": 34680,
        "meta_element_set_no": 999,
        "meta_rev_at_epoch": 88487,
        "meta_bstar": 0.0011410093,
        "meta_mean_motion_dot": 5.54e-05,
        "meta_mean_motion_ddot": 0,
        "tle_line1": "1 34680U 93036YA  25357.63996705  .00005540  00000+0  11410-2 0  9991",
        "tle_line2": "2 34680  74.0441 109.0451 0006327 210.5791 210.4022 14.60731514884874"
      },
      "geometry": {
        "type": "Point",
        "coordinates": [
          109.04591888670458,
          8.103598362857662
        ]
      }
    },
    {
      "type": "Feature",
      "properties": {
        "norad_id": 34681,
        "name": "COSMOS 2251 DEB",
        "group": "cosmos-2251-debris",
        "lat": 33.13962596988327,
        "lon": 75.67817396908961,
        "alt_km": 633.9206219662783,
        "timestamp": "2025-12-24T20:42:21.420404+00:00",
        "meta_object_name": "COSMOS 2251 DEB",
        "meta_object_id": "1993-036YB",
        "meta_epoch": "2025-12-24T04:35:10.035168",
        "meta_mean_motion": 14.83466348,
        "meta_eccentricity": 0.00256775,
        "meta_inclination": 74.0622,
        "meta_ra_of_asc_node": 267.7583,
        "meta_arg_of_pericenter": 322.9936,
        "meta_mean_anomaly": 196.7906,
        "meta_ephemeris_type": 0,
        "meta_classification_type": "U",
        "meta_norad_cat_id": 34681,
        "meta_element_set_no": 999,
        "meta_rev_at_epoch": 89440,
        "meta_bstar": 0.0014608063,
        "meta_mean_motion_dot": 0.00012063,
        "meta_mean_motion_ddot": 0,
        "tle_line1": "1 34681U 93036YB  25358.19108837  .00012063  00000+0  14608-2 0  9995",
        "tle_line2": "2 34681  74.0622 267.7583 0025677 322.9936 196.7906 14.83466348894404"
      },
      "geometry": {
        "type": "Point",
        "coordinates": [
          75.67817396908961,
          33.13962596988327
        ]
      }
    }
  ]
}